[{"OBJECT_NAME":"COSMOS 2251 DEB","OBJECT_ID":"1993-036PS","EPOCH":"2026-04-03T12:58:45.062112","MEAN_MOTION":14.17276327,"ECCENTRICITY":0.01548791,"INCLINATION":73.9758,"RA_OF_ASC_NODE":270.6079,"ARG_OF_PERICENTER":70.4795,"MEAN_ANOMALY":346.8761,"EPHEMERIS_TYPE":0,"CLASSIFICATION_TYPE":"U","NORAD_CAT_ID":34344,"ELEMENT_SET_NO":999,"REV_AT_EPOCH":87680,"BSTAR":0.0028323778,"MEAN_MOTION_DOT":6.418e-5,"MEAN_MOTION_DDOT":0},{"OBJECT_NAME":"COSMOS 2251 DEB","OBJECT_ID":"1993-036PU","EPOCH":"2026-04-02T12:47:32.642016","MEAN_MOTION":14.00106422,"ECCENTRICITY":0.02107144,"INCLINATION":73.9913,"RA_OF_ASC_NODE":119.9213,"ARG_OF_PERICENTER":273.3817,"MEAN_ANOMALY":241.5935,"EPHEMERIS_TYPE":0,"CLASSIFICATION_TYPE":"U","NORAD_CAT_ID":34346,"ELEMENT_SET_NO":999,"REV_AT_EPOCH":86960,"BSTAR":0.0010208264,"MEAN_MOTION_DOT":1.797e-5,"MEAN_MOTION_DDOT":0},{"OBJECT_NAME":"COSMOS 2251 DEB","OBJECT_ID":"1993-036PY","EPOCH":"2026-04-04T04:31:18.545376","MEAN_MOTION":15.2727861,"ECCENTRICITY":0.00133262,"INCLINATION":74.0249,"RA_OF_ASC_NODE":62.7959,"ARG_OF_PERICENTER":211.1633,"MEAN_ANOMALY":160.048,"EPHEMERIS_TYPE":0,"CLASSIFICATION_TYPE":"U","NORAD_CAT_ID":34383,"ELEMENT_SET_NO":999,"REV_AT_EPOCH":90819,"BSTAR":0.0062129565,"MEAN_MOTION_DOT":0.00170316,"MEAN_MOTION_DDOT":0},{"OBJECT_NAME":"COSMOS 2251 DEB","OBJECT_ID":"1993-036QC","EPOCH":"2026-04-04T04:25:57.101952","MEAN_MOTION":14.44139198,"ECCENTRICITY":0.00369145,"INCLINATION":74.0432,"RA_OF_ASC_NODE":2.8397,"ARG_OF_PERICENTER":73.5735,"MEAN_ANOMALY":76.5253,"EPHEMERIS_TYPE":0,"CLASSIFICATION_TYPE":"U","NORAD_CAT_ID":34387,"ELEMENT_SET_NO":999,"REV_AT_EPOCH":89804,"BSTAR":0.00056147746,"MEAN_MOTION_DOT":1.915e-5,"MEAN_MOTION_DDOT":0},{"OBJECT_NAME":"COSMOS 2251 DEB","OBJECT_ID":"1993-036QD","EPOCH":"2026-04-04T05:26:16.868832","MEAN_MOTION":14.50096805,"ECCENTRICITY":0.00110865,"INCLINATION":74.0422,"RA_OF_ASC_NODE":12.006,"ARG_OF_PERICENTER":34.3004,"MEAN_ANOMALY":122.6975,"EPHEMERIS_TYPE":0,"CLASSIFICATION_TYPE":"U","NORAD_CAT_ID":34388,"ELEMENT_SET_NO":999,"REV_AT_EPOCH":89785,"BSTAR":0.001295203,"MEAN_MOTION_DOT":5.006e-5,"MEAN_MOTION_DDOT":0},{"OBJECT_NAME":"COSMOS 2251 DEB","OBJECT_ID":"1993-036QE","EPOCH":"2026-04-04T07:01:20.788608","MEAN_MOTION":14.41858958,"ECCENTRICITY":0.00285807,"INCLINATION":74.0197,"RA_OF_ASC_NODE":41.0498,"ARG_OF_PERICENTER":131.7655,"MEAN_ANOMALY":18.771,"EPHEMERIS_TYPE":0,"CLASSIFICATION_TYPE":"U","NORAD_CAT_ID":34389,"ELEMENT_SET_NO":999,"REV_AT_EPOCH":89634,"BSTAR":0.00059785459,"MEAN_MOTION_DOT":1.939e-5,"MEAN_MOTION_DDOT":0},{"OBJECT_NAME":"COSMOS 2251 DEB","OBJECT_ID":"1993-036QM","EPOCH":"2026-04-03T21:55:51.726432","MEAN_MOTION":14.77807994,"ECCENTRICITY":0.00053839,"INCLINATION":74.0257,"RA_OF_ASC_NODE":264.3187,"ARG_OF_PERICENTER":278.0131,"MEAN_ANOMALY":203.875,"EPHEMERIS_TYPE":0,"CLASSIFICATION_TYPE":"U","NORAD_CAT_ID":34396,"ELEMENT_SET_NO":999,"REV_AT_EPOCH":90001,"BSTAR":0.0035758728,"MEAN_MOTION_DOT":0.00025762,"MEAN_MOTION_DDOT":0},{"OBJECT_NAME":"COSMOS 2251 DEB","OBJECT_ID":"1993-036RA","EPOCH":"2026-04-03T11:16:22.020384","MEAN_MOTION":14.58298334,"ECCENTRICITY":0.00791688,"INCLINATION":74.0605,"RA_OF_ASC_NODE":94.5906,"ARG_OF_PERICENTER":141.8774,"MEAN_ANOMALY":13.903,"EPHEMERIS_TYPE":0,"CLASSIFICATION_TYPE":"U","NORAD_CAT_ID":34409,"ELEMENT_SET_NO":999,"REV_AT_EPOCH":90821,"BSTAR":0.0002499939,"MEAN_MOTION_DOT":1.176e-5,"MEAN_MOTION_DDOT":0},{"OBJECT_NAME":"COSMOS 2251 DEB","OBJECT_ID":"1993-036RB","EPOCH":"2026-04-04T05:10:23.361888","MEAN_MOTION":15.35959556,"ECCENTRICITY":0.00256725,"INCLINATION":73.7332,"RA_OF_ASC_NODE":19.2912,"ARG_OF_PERICENTER":195.913,"MEAN_ANOMALY":164.1271,"EPHEMERIS_TYPE":0,"CLASSIFICATION_TYPE":"U","NORAD_CAT_ID":34410,"ELEMENT_SET_NO":999,"REV_AT_EPOCH":91490,"BSTAR":0.0045492847,"MEAN_MOTION_DOT":0.00164468,"MEAN_MOTION_DDOT":0},{"OBJECT_NAME":"COSMOS 2251 DEB","OBJECT_ID":"1993-036RD","EPOCH":"2026-04-04T01:19:38.752032","MEAN_MOTION":14.48439782,"ECCENTRICITY":0.01871578,"INCLINATION":73.9442,"RA_OF_ASC_NODE":113.1326,"ARG_OF_PERICENTER":184.3637,"MEAN_ANOMALY":175.5902,"EPHEMERIS_TYPE":0,"CLASSIFICATION_TYPE":"U","NORAD_CAT_ID":34412,"ELEMENT_SET_NO":999,"REV_AT_EPOCH":89276,"BSTAR":0.0013601117,"MEAN_MOTION_DOT":6.34e-5,"MEAN_MOTION_DDOT":0},{"OBJECT_NAME":"COSMOS 2251 DEB","OBJECT_ID":"1993-036RE","EPOCH":"2026-04-04T02:15:12.516768","MEAN_MOTION":14.29937073,"ECCENTRICITY":0.00883425,"INCLINATION":74.0308,"RA_OF_ASC_NODE":60.6704,"ARG_OF_PERICENTER":113.8074,"MEAN_ANOMALY":12.8371,"EPHEMERIS_TYPE":0,"CLASSIFICATION_TYPE":"U","NORAD_CAT_ID":34413,"ELEMENT_SET_NO":999,"REV_AT_EPOCH":88736,"BSTAR":0.0020035196,"MEAN_MOTION_DOT":5.364e-5,"MEAN_MOTION_DDOT":0},{"OBJECT_NAME":"COSMOS 2251 DEB","OBJECT_ID":"1993-036RM","EPOCH":"2026-04-04T05:19:07.916160","MEAN_MOTION":14.68578841,"ECCENTRICITY":0.0105779,"INCLINATION":74.0315,"RA_OF_ASC_NODE":246.3307,"ARG_OF_PERICENTER":337.5917,"MEAN_ANOMALY":76.1678,"EPHEMERIS_TYPE":0,"CLASSIFICATION_TYPE":"U","NORAD_CAT_ID":34420,"ELEMENT_SET_NO":999,"REV_AT_EPOCH":91421,"BSTAR":0.00019887131,"MEAN_MOTION_DOT":1.221e-5,"MEAN_MOTION_DDOT":0},{"OBJECT_NAME":"COSMOS 2251 DEB","OBJECT_ID":"1993-036RS","EPOCH":"2026-04-03T16:37:31.148832","MEAN_MOTION":14.6291328,"ECCENTRICITY":0.00272449,"INCLINATION":74.02,"RA_OF_ASC_NODE":199.7926,"ARG_OF_PERICENTER":294.4659,"MEAN_ANOMALY":65.3667,"EPHEMERIS_TYPE":0,"CLASSIFICATION_TYPE":"U","NORAD_CAT_ID":34425,"ELEMENT_SET_NO":999,"REV_AT_EPOCH":90377,"BSTAR":0.0012290335,"MEAN_MOTION_DOT":6.296e-5,"MEAN_MOTION_DDOT":0},{"OBJECT_NAME":"COSMOS 2251 DEB","OBJECT_ID":"1993-036RX","EPOCH":"2026-04-03T09:58:16.837824","MEAN_MOTION":14.39970972,"ECCENTRICITY":0.00596368,"INCLINATION":74.0486,"RA_OF_ASC_NODE":97.258,"ARG_OF_PERICENTER":142.484,"MEAN_ANOMALY":218.05,"EPHEMERIS_TYPE":0,"CLASSIFICATION_TYPE":"U","NORAD_CAT_ID":34430,"ELEMENT_SET_NO":999,"REV_AT_EPOCH":89562,"BSTAR":0.00049025872,"MEAN_MOTION_DOT":1.55e-5,"MEAN_MOTION_DDOT":0},{"OBJECT_NAME":"COSMOS 2251 DEB","OBJECT_ID":"1993-036RY","EPOCH":"2026-04-04T01:40:29.746272","MEAN_MOTION":14.29184479,"ECCENTRICITY":0.00676409,"INCLINATION":74.0765,"RA_OF_ASC_NODE":331.8024,"ARG_OF_PERICENTER":288.1369,"MEAN_ANOMALY":71.2422,"EPHEMERIS_TYPE":0,"CLASSIFICATION_TYPE":"U","NORAD_CAT_ID":34431,"ELEMENT_SET_NO":999,"REV_AT_EPOCH":88747,"BSTAR":0.00066468998,"MEAN_MOTION_DOT":1.704e-5,"MEAN_MOTION_DDOT":0},{"OBJECT_NAME":"COSMOS 2251 DEB","OBJECT_ID":"1993-036RZ","EPOCH":"2026-04-03T14:04:51.792384","MEAN_MOTION":14.03257151,"ECCENTRICITY":0.0181049,"INCLINATION":73.8255,"RA_OF_ASC_NODE":265.2074,"ARG_OF_PERICENTER":327.4931,"MEAN_ANOMALY":100.7554,"EPHEMERIS_TYPE":0,"CLASSIFICATION_TYPE":"U","NORAD_CAT_ID":34432,"ELEMENT_SET_NO":999,"REV_AT_EPOCH":87253,"BSTAR":0.00088039,"MEAN_MOTION_DOT":1.561e-5,"MEAN_MOTION_DDOT":0},{"OBJECT_NAME":"COSMOS 2251 DEB","OBJECT_ID":"1993-036SA","EPOCH":"2026-04-04T00:56:18.010176","MEAN_MOTION":14.13565738,"ECCENTRICITY":0.01505358,"INCLINATION":74.0088,"RA_OF_ASC_NODE":315.9026,"ARG_OF_PERICENTER":68.5022,"MEAN_ANOMALY":293.2092,"EPHEMERIS_TYPE":0,"CLASSIFICATION_TYPE":"U","NORAD_CAT_ID":34433,"ELEMENT_SET_NO":999,"REV_AT_EPOCH":87536,"BSTAR":0.0010815769,"MEAN_MOTION_DOT":2.248e-5,"MEAN_MOTION_DDOT":0},{"OBJECT_NAME":"COSMOS 2251 DEB","OBJECT_ID":"1993-036SB","EPOCH":"2026-04-04T06:27:45.035136","MEAN_MOTION":13.90858427,"ECCENTRICITY":0.02806543,"INCLINATION":74.0594,"RA_OF_ASC_NODE":178.5459,"ARG_OF_PERICENTER":288.4971,"MEAN_ANOMALY":126.0503,"EPHEMERIS_TYPE":0,"CLASSIFICATION_TYPE":"U","NORAD_CAT_ID":34434,"ELEMENT_SET_NO":999,"REV_AT_EPOCH":85530,"BSTAR":0.0033199798,"MEAN_MOTION_DOT":5.696e-5,"MEAN_MOTION_DDOT":0},{"OBJECT_NAME":"COSMOS 2251 DEB","OBJECT_ID":"1993-036SP","EPOCH":"2026-04-03T17:00:51.721344","MEAN_MOTION":14.49486109,"ECCENTRICITY":0.00517349,"INCLINATION":74.0419,"RA_OF_ASC_NODE":207.2785,"ARG_OF_PERICENTER":314.9424,"MEAN_ANOMALY":44.7545,"EPHEMERIS_TYPE":0,"CLASSIFICATION_TYPE":"U","NORAD_CAT_ID":34446,"ELEMENT_SET_NO":999,"REV_AT_EPOCH":90316,"BSTAR":0.00020275938,"MEAN_MOTION_DOT":7.61e-6,"MEAN_MOTION_DDOT":0},{"OBJECT_NAME":"COSMOS 2251 DEB","OBJECT_ID":"1993-036SS","EPOCH":"2026-04-04T07:07:13.340352","MEAN_MOTION":15.04191917,"ECCENTRICITY":0.00196573,"INCLINATION":74.0285,"RA_OF_ASC_NODE":201.9375,"ARG_OF_PERICENTER":232.89,"MEAN_ANOMALY":158.5302,"EPHEMERIS_TYPE":0,"CLASSIFICATION_TYPE":"U","NORAD_CAT_ID":34449,"ELEMENT_SET_NO":999,"REV_AT_EPOCH":90380,"BSTAR":0.0051851633,"MEAN_MOTION_DOT":0.00073039,"MEAN_MOTION_DDOT":0},{"OBJECT_NAME":"COSMOS 2251 DEB","OBJECT_ID":"1993-036SU","EPOCH":"2026-04-03T18:09:48.314016","MEAN_MOTION":15.05572776,"ECCENTRICITY":0.00195523,"INCLINATION":74.0434,"RA_OF_ASC_NODE":220.1957,"ARG_OF_PERICENTER":226.2884,"MEAN_ANOMALY":133.6687,"EPHEMERIS_TYPE":0,"CLASSIFICATION_TYPE":"U","NORAD_CAT_ID":34451,"ELEMENT_SET_NO":999,"REV_AT_EPOCH":90315,"BSTAR":0.006070469,"MEAN_MOTION_DOT":0.00088925,"MEAN_MOTION_DDOT":0},{"OBJECT_NAME":"COSMOS 2251 DEB","OBJECT_ID":"1993-036SV","EPOCH":"2026-04-03T17:38:34.541664","MEAN_MOTION":15.15946389,"ECCENTRICITY":0.00583234,"INCLINATION":74.0281,"RA_OF_ASC_NODE":310.1825,"ARG_OF_PERICENTER":356.4275,"MEAN_ANOMALY":3.6495,"EPHEMERIS_TYPE":0,"CLASSIFICATION_TYPE":"U","NORAD_CAT_ID":34452,"ELEMENT_SET_NO":999,"REV_AT_EPOCH":92357,"BSTAR":0.001208636,"MEAN_MOTION_DOT":0.00024247,"MEAN_MOTION_DDOT":0},{"OBJECT_NAME":"COSMOS 2251 DEB","OBJECT_ID":"1993-036SX","EPOCH":"2026-04-04T04:51:06.511680","MEAN_MOTION":14.38993403,"ECCENTRICITY":0.00338091,"INCLINATION":74.0573,"RA_OF_ASC_NODE":70.488,"ARG_OF_PERICENTER":108.4664,"MEAN_ANOMALY":252.0171,"EPHEMERIS_TYPE":0,"CLASSIFICATION_TYPE":"U","NORAD_CAT_ID":34454,"ELEMENT_SET_NO":999,"REV_AT_EPOCH":89685,"BSTAR":0.00033700475,"MEAN_MOTION_DOT":1.021e-5,"MEAN_MOTION_DDOT":0}]
